[
    {
        "Altitude(m)": 604969.0890744418,
        "Argument of Periapsis(deg)": 0.0,
        "Eccentricity": 0.0,
        "Inclination(deg)": 60.0,
        "Latitude(deg)": -0.0926090195662645,
        "Longitude(deg)": 169.97752745993643,
        "Mean Anomaly(deg)": 0.0,
        "RAAN(deg)": 270.0,
        "Satellite Name": "Test1 1188",
        "Satellite Number": 1188,
        "Semi-Major Axis(m)": 6980739.136638005,
        "Time(s)": 0
    },
    {
        "Altitude(m)": 604900.0289295051,
        "Argument of Periapsis(deg)": 0.00010418945913296404,
        "Eccentricity": 0.0,
        "Inclination(deg)": 60.0,
        "Latitude(deg)": 0.4478164501683802,
        "Longitude(deg)": 170.245651337082,
        "Mean Anomaly(deg)": 0.620106145461853,
        "RAAN(deg)": 269.99957995086027,
        "Satellite Name": "Test1 1188",
        "Satellite Number": 1188,
        "Semi-Major Axis(m)": 6980739.136638005,
        "Time(s)": 10
    }
]